[
    {
        "name" : "Trip to Europe",
        "places_to_visit" : [
            {
                    "lat" : 48.85877975,
                    "long" : 2.294786,
                    "title" : "Eiffel Tower",
                    "place_name" : "Eiffel Tower, 5 avenue Anatole France, Paris, 75007, France"
            },
            {
                    "lat" : 48.8610545,
                    "long" : 2.3358015,
                    "title" : "Louvre Pyramid",
                    "place_name" : "Louvre Pyramid, Cour Napoléon, Paris, 75001, France"
            },
            {
                    "lat" : 48.852987,
                    "long" : 2.350423,
                    "title" : "Cathedral of Notre-Dame de Paris",
                    "place_name" : "Cathedral of Notre-Dame de Paris, 6 parvis Notre-Dame, Paris, 75004, France"
            },
            {
                    "lat" : 43.718903749999996,
                    "long" : 10.3965945,
                    "title" : "Tower of Pisa",
                    "place_name" : "Tower of Pisa, Piazza del Duomo, Pisa, Pisa 56126, Italy"
            },
            {
                    "lat" : 40.78333,
                    "long" : 14.7,
                    "title" : "Castel San Giorgio",
                    "place_name" : "Castel San Giorgio, Salerno, Italy"
            },
            {
                    "lat" : 51.505247499999996,
                    "long" : -0.1880865,
                    "title" : "Kensington Palace",
                    "place_name" : "Kensington Palace, Palace Ave, London, England W8 4PY, United Kingdom"
            },
            {
                    "lat" : 41.404441,
                    "long" : 2.174861,
                    "title" : "Sagrada Família",
                    "place_name" : "Sagrada Família, Barcelona, Barcelona, Spain"
            }
        ]
    },
    {
        "name" : "Iceland",
        "places_to_visit" : [
            {
                    "lat" : 65.5287779,
                    "long" : -13.7666098,
                    "title" : "Höfn",
                    "place_name" : "Höfn, 721 Borgarfjarðarhreppur, Iceland"
            },
            {
                    "lat" : 64.15,
                    "long" : -21.88333,
                    "title" : "Reykjavík",
                    "place_name" : "Reykjavík, Capital, Iceland"
            },
            {
                    "lat" : 64.683262,
                    "long" : -19.299933,
                    "title" : "Kerlingarfjöll",
                    "place_name" : "Kerlingarfjöll, F347, Hrunamannahreppur, Southern 846, Iceland"
            },
            {
                    "lat" : 64.25688149999999,
                    "long" : -21.127571,
                    "title" : "Thingvellir National Park",
                    "place_name" : "Thingvellir National Park, Þingvallavegur, Bláskógabyggð, Southern 806, Iceland"
            },
            {
                    "lat" : 65.68333,
                    "long" : -18.1,
                    "title" : "Akureyri",
                    "place_name" : "Akureyri, Northeastern, Iceland"
            },
            {
                    "lat" : 63.625115,
                    "long" : -19.5977,
                    "title" : "Eyjafjallajökull",
                    "place_name" : "Eyjafjallajökull, 63°38′N 19°36′W, Rangárþing eystra, Southern 861, Iceland"
            },
            {
                    "lat" : 64.016545,
                    "long" : -16.96639,
                    "title" : "Vatnajökull National Park",
                    "place_name" : "Vatnajökull National Park, Skaftafell 1a, Hornafjörður, Eastern 785, Iceland"
            },
            {
                    "lat" : 64.0165365,
                    "long" : -16.9668115,
                    "title" : "Skaftafell",
                    "place_name" : "Skaftafell, Skaftafell National Park, Hornafjörður, Eastern 785, Iceland"
            },
            {
                    "lat" : 65.2424384,
                    "long" : -14.3806684,
                    "title" : "Egilsstaðir",
                    "place_name" : "Egilsstaðir, 700 Fljótsdalshérað, Iceland"
            },
            {
                    "lat" : 64.326588,
                    "long" : -20.120540499999997,
                    "title" : "Gullfoss",
                    "place_name" : "Gullfoss, Biskupstungnabraut, Hrunamannahreppur, Southern 846, Iceland"
            }
        ]
    }, 
    {
        "name" : "Southeast Asia",
        "places_to_visit" : [
            {
                    "lat" : 21,
                    "long" : 105.75,
                    "title" : "Hanoi",
                    "place_name" : "Hanoi, Vietnam"
            },
            {
                    "lat" : 10.77945,
                    "long" : 106.69942950000001,
                    "title" : "Saigon Notre-Dame Cathedral Basilica",
                    "place_name" : "Saigon Notre-Dame Cathedral Basilica, 1 Công xã Paris, Bến Nghé, District 1, Quận 1, Ho Chi Minh City 710100, Vietnam"
            },
            {
                    "lat" : 10.22889,
                    "long" : 103.95722,
                    "title" : "Phú Quốc",
                    "place_name" : "Phú Quốc, Kien Giang, Vietnam"
            },
            {
                    "lat" : 12.25,
                    "long" : 109.18333,
                    "title" : "Nha Trang",
                    "place_name" : "Nha Trang, Khanh Hoa, Vietnam"
            },
            {
                    "lat" : 11.94167,
                    "long" : 108.43833,
                    "title" : "Da Lat",
                    "place_name" : "Da Lat, Lâm Đồng, Vietnam"
            },
            {
                    "lat" : 10.40417,
                    "long" : 107.14167,
                    "title" : "Vung Tau",
                    "place_name" : "Vung Tau, Ba Ria-Vung Tau, Vietnam"
            },
            {
                    "lat" : 18.83722,
                    "long" : 98.97056,
                    "title" : "Chiang Mai",
                    "place_name" : "Chiang Mai, Thailand"
            },
            {
                    "lat" : 7.88806,
                    "long" : 98.3975,
                    "title" : "Phuket",
                    "place_name" : "Phuket, Phuket, Thailand"
            },
            {
                    "lat" : 7.728472,
                    "long" : 98.788173,
                    "title" : "Phi Phi The Beach Resort",
                    "place_name" : "Phi Phi The Beach Resort, A. Muang Krabi, Mueang Krabi, Krabi 81210, Thailand"
            },
            {
                    "lat" : 12.92306,
                    "long" : 100.87194,
                    "title" : "Pattaya",
                    "place_name" : "Pattaya, Chon Buri, Thailand"
            }
        ]

    }, 
    {
        "name" : "Philippines",
        "places_to_visit" : [
            {
                    "lat" : 11.949171,
                    "long" : 121.931237,
                    "title" : "Boracay",
                    "place_name" : "Boracay, Malay, Aklan 5608, Philippines"
            },
            {
                    "lat" : 18.16667,
                    "long" : 120.75,
                    "title" : "Ilocos Norte",
                    "place_name" : "Ilocos Norte, Philippines"
            },
            {
                    "lat" : 18.528114,
                    "long" : 120.703545,
                    "title" : "Bangui Windmills",
                    "place_name" : "Bangui Windmills, Bangui, Ilocos Norte 2920, Philippines"
            },
            {
                    "lat" : 18.624867,
                    "long" : 120.858639,
                    "title" : "Pagudpud Beach",
                    "place_name" : "Pagudpud Beach, Pagudpud, Ilocos Norte, Philippines"
            },
            {
                    "lat" : 17.56667,
                    "long" : 120.38333,
                    "title" : "Vigan",
                    "place_name" : "Vigan, Ilocos Sur, Philippines"
            },
            {
                    "lat" : 16.412437,
                    "long" : 120.595653,
                    "title" : "Baguio City Night Market",
                    "place_name" : "Baguio City Night Market, Harrison Rd, Baguio, Baguio 2600, Philippines"
            },
            {
                    "lat" : 17.08333,
                    "long" : 120.9,
                    "title" : "Sagada",
                    "place_name" : "Sagada, Mountain, Philippines"
            },
            {
                    "lat" : 16.19157,
                    "long" : 120.00445,
                    "title" : "Hundred Islands National Park",
                    "place_name" : "Hundred Islands National Park, Alaminos, Pangasinan 2404, Philippines"
            },
            {
                    "lat" : 14.809102,
                    "long" : 120.287476,
                    "title" : "Subic Bay",
                    "place_name" : "Subic Bay, Zambales, Philippines"
            },
            {
                    "lat" : 13.88333,
                    "long" : 120.93333,
                    "title" : "Taal",
                    "place_name" : "Taal, Batangas, Philippines"
            },
            {
                    "lat" : 9.788494,
                    "long" : 126.156659,
                    "title" : "Siargao Island",
                    "place_name" : "Siargao Island, Siargao Island, General Luna, Surigao del Norte 8419, Philippines"
            },
            {
                    "lat" : 10.31702,
                    "long" : 123.978934,
                    "title" : "Mactan Island",
                    "place_name" : "Mactan Island, Mactan Island, Lapu-Lapu, Lapu-Lapu 6016, Philippines"
            },
            {
                    "lat" : 11.19556,
                    "long" : 119.4075,
                    "title" : "El Nido",
                    "place_name" : "El Nido, Palawan, Philippines"
            },
            {
                    "lat" : 9.75,
                    "long" : 118.75,
                    "title" : "Puerto Princesa",
                    "place_name" : "Puerto Princesa, Puerto Princesa, Philippines"
            }
        ]
    }
]
